#dP2018  8 11  0  0  0.00000000      96 __u+U IGS08 FIT  IAC
## 2013 518400.00000000   900.00000000 58341 0.0000000000000
+   86   C01C02C03C04C05C06C07C08C09C10C11C12C13C14E01E02E03
+        E04E05E07E08E09E11E12E14E18E19E24E26E30G01G02G03G05
+        G06G07G08G09G10G11G12G13G14G15G16G17G18G19G20G21G22
+        G23G24G25G26G27G28G29G30G31G32J01J02J03R01R02R03R04
+        R07R08R09R10R11R13R14R15R16R17R18R19R20R21R22R23R24
+        R26  0  0  0  0  0  0  0  0  0  0  0  0  0  0  0  0
++        12 12 13 12 12  8  8  8  8  8  7  8  8  7  7  7  7
++         7  7  7  7  7  7  7  7  7  7  7  7  7  3  3  3  3
++         3  3  3  3  3  3  3  3  3  3  3  3  3  3  3  3  3
++         3  3  3  3  3  3  3  3  3  3 10 11 11  5  5  5  5
++         5  5  5  5  5  5  5  5  5  5  5  5  5  7  5  5  5
++         8  0  0  0  0  0  0  0  0  0  0  0  0  0  0  0  0
%c M  cc GPS ccc cccc cccc cccc cccc ccccc ccccc ccccc ccccc
%c cc cc ccc ccc cccc cccc cccc cccc ccccc ccccc ccccc ccccc
%f  1.2500000  1.025000000  0.00000000000  0.000000000000000
%f  0.0000000  0.000000000  0.00000000000  0.000000000000000
%i    0    0    0    0      0      0      0      0         0
%i    0    0    0    0      0      0      0      0         0
/* INFORMATION & ANALYSIS CENTER (IAC)            FINAL DATA
/* S/V CLOCKS ARE ALIGNED TO GPS & GLONASS TIME RESPECTIVELY
/* USING THE BROADCAST EPHEMERIS                            
/* PCV:IGS14_2000 OL/AL:FES2004  NONE     YN ORB:CoN CLK:CoN
*  2018 08 11  4 45  0.00000000
PC01 -32324.668565  27043.023711    301.261944    455.199713
PC02   4453.197286  41919.729002    805.683837    -94.481550
PC03 -14834.145885  39477.326310    895.523901    343.174515
PC04 -39619.067004  14403.488625    534.838820   -239.503075
PC05  21939.846650  36004.591698    473.633532    -38.724838
PC06 -22849.036734  26867.687901 -23068.673485    217.996058
PC07 -13821.604953  37253.044735 -13249.536533     28.782095
PC08  -8072.028340  21428.402308  35480.799651    478.539685
PC09 -10059.693320  26805.092645 -30867.885397    128.987854
PC10  -3672.109654  41782.633399     61.943186   -456.834948
PC11 -11474.886016 -15417.900284 -20152.850431   -630.223586
PC12  10575.967085 -13253.618930 -22132.818559    554.211279
PC13   4676.513164  29055.428897  30296.058539   -220.991337
PC14   -544.763160 -20630.556578  18821.218430    268.725004
PE01  -6451.706408  27053.690971 -10107.456836   -410.199237
PE02   6431.574573 -27082.006673  10078.488616     23.022456
PE03  15524.039184 -20771.423992  14294.337317    -64.400767
PE04   4570.899951  16939.571351 -23829.264872    -93.794381
PE05  26609.653816 -12436.227171  -3671.318065    213.381843
PE07 -22091.946151  -3165.296183  19453.286854    -17.968706
PE08  -4662.026267 -16782.458311  23943.926361   6525.894986
PE09  22061.834834   2849.285574 -19523.332968   6709.379870
PE11  26605.836820  12619.499566  -2936.367988   3563.941241
PE12  14893.387507  20293.317914  15557.958729   4800.994839
PE14  26408.694480  -5152.948423  -4348.072596   6537.265742
PE18 -28141.851616  -5844.826922  -8511.297701   5992.003581
PE19 -17100.402830  20468.404388 -12830.790285    -13.298423
PE24  14896.738070  11861.440265  22655.885251   6553.435701
PE26 -22548.881351   2077.494075  19056.255588   5607.360182
PE30  -5936.488998 -27583.182289  -8963.157210   5605.490693
PG01 -19821.269736  -9503.923515  14960.051790    -75.158619
PG02  14536.566373  22038.270141   4448.723767     31.572118
PG03 -16369.214347   1387.076658  20829.462446    119.709764
PG05   6255.840806  18733.999300 -17768.984285     -3.355770
PG06   1837.030342  20869.839571  16339.205505    377.597831
PG07 -14237.469200   6026.144693 -21402.580793    143.769905
PG08 -21735.820060  -6613.577099 -13838.618054   -111.250345
PG09 -24677.576990   7746.565962  -6085.710551    511.389713
PG10  10798.946401 -24149.926852   -845.291226    187.122731
PG11 -24371.576289  -8357.966702   5477.303254   -725.438819
PG12  13683.651264   5147.864946  21974.632118    314.896126
PG13  14532.672657  12627.182554 -18408.336824    -91.163191
PG14   1079.491890 -15390.974926  21914.795780    -97.632034
PG15  24191.203781   3387.158770 -11113.868857   -348.785601
PG16  -2935.506788 -19550.381711 -17685.399299     14.087934
PG17 -11736.217124  13976.207362  19640.286743    -68.598389
PG18 -19740.326627 -16391.858285   6717.075150     44.272642
PG19  -1841.327797  14651.640598  21787.352673   -412.801248
PG20  14243.098034 -19676.538775 -10751.070430    513.950793
PG21  10834.598286 -10685.897170 -20976.616318   -354.383430
PG22 -14331.593335  -7519.757999  21300.834130   -485.572805
PG23 -26466.982735    448.487388   4417.179940   -213.019489
PG24  20793.703052  12215.947306  11331.585385    -53.796476
PG25  17108.087088 -10890.406462  16842.821095   -629.815176
PG26   3198.281338 -24776.298162  -8826.873993    -55.439663
PG27 -11539.794260 -12497.765112 -20551.339523    354.851365
PG28 -13657.758955  22635.402565  -2193.016246    737.430921
PG29  25641.658318  -4871.079066  -4940.088209    398.206413
PG30  -6582.335077  16121.985259 -19991.889202     39.196743
PG31  -2777.502814 -21721.256347  14761.231432    101.497406
PG32  10853.477093 -14983.732483  19066.223727   -454.497997
PJ01 -30924.086586  28286.210690   9542.179657   -146.309683
PJ02 -19482.088200  23630.298974 -24733.367989    -10.354340
PJ03 -29509.959999  27066.718857  18370.720718     -4.573874
PR01 -18520.716656   5709.250642  16580.218738     30.364123
PR02 -18704.332459  17268.318051  -1946.850215    324.130666
PR03  -7028.235765  17106.559833 -17546.325794    140.173528
PR04   9113.890858   6539.662934 -22889.171032    271.926768
PR07   6550.089601 -16924.168775  17946.579220    -44.525950
PR08  -8579.740893  -7083.372712  23008.092426     21.842091
PR09   5987.909157 -16762.661704  18319.860650     22.642139
PR10  -2567.956749 -25111.919305   3973.407104     29.506053
PR11 -10062.494647 -19155.447265 -13535.466485    -37.355789
PR13  -5651.740433  16496.398499 -18624.196247    -13.470800
PR14   2584.137723  25030.939445  -4091.181522     29.928205
PR15   8552.537805  21939.986991   9929.941811    -14.472263
PR16  11569.183662   2962.337726  22534.390221     99.020492
PR17   3670.628514  12156.004744  22130.984371    155.097474
PR18  19059.453744  12376.433936  11534.804237    206.341957
PR19  24040.772683   6335.460207  -5723.640197    -57.828007
PR20  14323.551664  -4507.867021 -20606.025026   -348.283572
PR21  -4057.094242 -12153.714475 -22057.251685      2.641687
PR22 -20486.886374 -11966.711710  -9533.971138    -58.645225
PR23 -23310.621174  -3701.070725   9659.002720    171.234389
PR24 -13345.199289   5351.166168  21040.966136   -169.980792
PR26  15275.276384  -4181.599786 -19998.100302     40.284467
EOF
